MAKERSAT 0              
1 43016U 17073D   26068.63673096  .00023659  00000+0  71590-3 0  9993
2 43016  97.4777 310.6155 0115258 266.0743  92.7313 15.27797199451246
CARTOSAT-3              
1 44804U 19081A   26068.96642447  .00004075  00000+0  19660-3 0  9993
2 44804  97.4422 132.3705 0013025 136.2078 224.0192 15.19179249348406
